7 EFHK 24.907 60.316 METAR AFTN 420407555 METAR EFHK 010020Z 27008KT CAVOK M01/M03 Q1010 NOSIG= 20200101T002000 nan nan 20200101T002204,115305 SAFI31 EFKL 010020 nan
5549 EETN 24.833 59.413 METAR GTS 420407544 METAR EETN 010020Z 29014KT 9999 FEW023 03/M02 Q1013 R08/19//95 = 20200101T002000 nan nan 20200101T002203,977397 SAEO31 EETN 010020 nan
5 EFHA 24.805 61.855 METAR AFTN 420409167 METAR EFHA 010020Z AUTO 27008KT CAVOK M03/M04 Q1007= 20200101T002000 nan nan 20200101T002403,166210 SAFI32 EFKL 010020 nan
10 EFJY 25.675 62.402 METAR AFTN 420409165 METAR EFJY 010020Z AUTO 26007KT CAVOK M03/M05 Q1005= 20200101T002000 nan nan 20200101T002403,166210 SAFI32 EFKL 010020 nan
20 EFOU 25.373 64.926 METAR AFTN 420407559 METAR EFOU 010020Z AUTO 26005KT CAVOK M02/M04 Q1001= 20200101T002000 nan nan 20200101T002204,115305 SAFI31 EFKL 010020 nan
11 EFKE 24.579 65.780 METAR AFTN 420409177 METAR EFKE 010020Z AUTO 21003KT 170V230 CAVOK M10/M11 Q1000= 20200101T002000 nan nan 20200101T002403,166210 SAFI32 EFKL 010020 nan
22 EFRO 25.822 66.562 METAR AFTN 420407560 METAR EFRO 010020Z AUTO 22003KT 200V260 CAVOK M10/M11 Q0997= 20200101T002000 nan nan 20200101T002204,115305 SAFI31 EFKL 010020 nan
31988 RUEK 37.900 55.400 SIGMET GTS 420365184 USSV SIGMET 2 VALID 312300/010200 USSS- USSV YEKATERINBURG FIR SEV ICE (FZRA) FCST WI N5920 E05850 - N5545 E05755 - N5630 E05610 - N5635 E05355 - N5835 E05410 - N5920 E05850 SFC/FL100 MOV E 30KMH NC= 20191231T222400 20191231T230000 20200101T020000 20191231T223003,583719 WSRA31 RUEK 312224 nan
31989 RUHB 127.533 50.250 SIGMET GTS 420409303 UHHH SIGMET 1 VALID 010030/010430 UHHH- UHHH KHABAROVSK FIR SEV TURB FCST WI N6000 E14316 - N5351 E14308 - N4840 E14419 - N4411 E13532 - N5208 E13852 - N5411 E13044 - N60 E14316 SFC/FL120 STNR NC= 20200101T002000 20200101T003000 20200101T043000 20200101T002502,909667 WSRA31 RUHB 010020 nan
31992 RUKR 92.543 56.176 SIGMET GTS 420348010 UNKL SIGMET 19 VALID 312200/010200 UNKL- UNKL KRASNOYARSK FIR SEV TURB FCST WI N7323 E09100 - N6728 E09432 - N6833 E08320 - N7052 E07835 - N7153 E07600 - N7323 E09100 SFC/FL150 MOV SE 20KMH NC= 20191231T214900 20191231T220000 20200101T020000 20191231T215002,409660 WSRA31 RUKR 312149 nan
31992 RUKR 92.543 56.176 SIGMET GTS 420348455 UNKL SIGMET 20 VALID 312200/010200 UNKL- UNKL KRASNOYARSK FIR SEV MTW FCST WI N7035 E09800 - N6728 E09432 - N6803 E08739 - N7030 E09000 - N7035 E09800 SFC/FL150 STNR NC= 20191231T215100 20191231T220000 20200101T020000 20191231T215502,894573 WSRA31 RUKR 312151 nan
31994 RUMG 150.721 59.911 SIGMET GTS 420327100 UHMM SIGMET 6 VALID 312100/010100 UHMM- UHMM MAGADAN FIR SEV TURB FCST S OF LINE N6155 E14506 - N6146 E15023 - N6111 E15648 - N5940 E15746 SFC/FL240 STNR NC= 20191231T204700 20191231T210000 20200101T010000 20191231T205003,056425 WSRA31 RUMG 312047 nan
31994 RUMG 150.721 59.911 SIGMET GTS 420327150 UHMM SIGMET 7 VALID 312100/010100 UHMM- UHMM MAGADAN FIR SEV TURB FCST SE OF LINE N7200 W16858 - N7235 E17600 - N6120 W17745 SFC/FL150 STNR NC= 20191231T204900 20191231T210000 20200101T010000 20191231T205003,115210 WSRA31 RUMG 312049 nan
31999 RUPK 158.454 53.168 SIGMET GTS 420350867 UHPP SIGMET 3 VALID 312200/010200 UHPP- UHPP PETROPAVLOVSK-KAMCHATSKY FIR/UIR SEV TURB FCST S OF N55 AND E OF E154 SFC/FL160 MOV N 10KMH NC= 20191231T215700 20191231T220000 20200101T020000 20191231T220002,619427 WSRA31 RUPK 312157 nan
31999 RUPK 158.454 53.168 SIGMET GTS 420350887 UHPP SIGMET 4 VALID 312200/010200 UHPP- UHPP PETROPAVLOVSK-KAMCHATSKY FIR/UIR SEV ICE FCST S OF N55 AND E OF E154 SFC/FL100 MOV N 10KMH NC= 20191231T215800 20191231T220000 20200101T020000 20191231T220002,754252 WSRA31 RUPK 312158 nan
