7 EFHK 24.907 60.316 METAR AFTN 35819713 METAR EFHK 202350Z 31011KT 4000 -DZ BR FEW004 BKN005 01/01 Q0984 TEMPO BKN004= 20151120T235000 nan nan 20151120T235401,960258 SAFI31 EFHK 202350 nan
7 EFHK 24.907 60.316 TAF AFTN 35818575 TAF EFHK 202343Z 2100/2124 30009KT 3000 -DZ BKN004 TEMPO 2100/2102 5000 BKN006 BECMG 2102/2104 5000 -RASN BKN006 TEMPO 2104/2107 3000 BKN010 TEMPO 2107/2110 9000 BKN010 BECMG 2110/2112 9999 BKN015 BECMG 2114/2116 5000 -SN BKN012 BECMG 2117/2119 9999 BKN020= 20151120T234300 20151121T000000 20151121T235900 20151120T234502,940440 FTFI31 EFHK 202300 RRA RRA
22 EFRO 25.822 66.562 METAR AFTN 35819717 METAR EFRO 202350Z AUTO 03007KT 9000 BKN002 OVC004 M07/M07 Q0994= 20151120T235000 nan nan 20151120T235401,960258 SAFI31 EFHK 202350 nan
22 EFRO 25.822 66.562 TAF AFTN 35818306 TAF EFRO 202334Z 2100/2124 04010KT 9999 BKN003 BECMG 2100/2102 BKN006 TEMPO 2100/2102 7000 BECMG 2106/2108 SCT006 BKN011 TEMPO 2108/2124 BKN006= 20151120T233400 20151121T000000 20151121T235900 20151120T234502,519535 FTFI31 EFHK 202300 nan
8 EFIV 27.419 68.613 METAR AFTN 35819622 METAR EFIV 202350Z AUTO 20008KT 160V240 9999 OVC008 M05/M07 Q0994= 20151120T235000 nan nan 20151120T235102,682855 SAFI34 EFHK 202350 nan
8 EFIV 27.419 68.613 TAF AFTN 35818282 TAF EFIV 202340Z NIL= 20151120T234000 nan nan 20151120T234502,479961 FCFI33 EFHK 202300 nan
