5 EFHA 24.805 61.855 METAR AFTN 420409167 METAR EFHA 010020Z AUTO 27008KT CAVOK M03/M04 Q1007= 20200101T002000 nan nan 20200101T002403,166210 SAFI32 EFKL 010020 nan
7 EFHK 24.907 60.316 METAR AFTN 420407555 METAR EFHK 010020Z 27008KT CAVOK M01/M03 Q1010 NOSIG= 20200101T002000 nan nan 20200101T002204,115305 SAFI31 EFKL 010020 nan
10 EFJY 25.675 62.402 METAR AFTN 420409165 METAR EFJY 010020Z AUTO 26007KT CAVOK M03/M05 Q1005= 20200101T002000 nan nan 20200101T002403,166210 SAFI32 EFKL 010020 nan
11 EFKE 24.579 65.780 SPECI AFTN 420410414 SPECI EFKE 010034Z AUTO 24005KT 200V270 9999 FZUP NCD M09/M10 Q1000= 20200101T003400 nan nan 20200101T003503,180351 SPFI31 EFKE 010034 nan
20 EFOU 25.373 64.926 SPECI AFTN 420409983 SPECI EFOU 010025Z AUTO 25004KT 9999 FZUP FEW008 M06/M06 Q1001= 20200101T002500 nan nan 20200101T003003,327426 SPFI31 EFOU 010025 nan
22 EFRO 25.822 66.562 METAR AFTN 420407560 METAR EFRO 010020Z AUTO 22003KT 200V260 CAVOK M10/M11 Q0997= 20200101T002000 nan nan 20200101T002204,115305 SAFI31 EFKL 010020 nan
