7 EFHK 24.907 60.316 METAR AFTN 34887125 METAR EFHK 170220Z 15014KT 9999 BKN007 06/05 Q1002 NOSIG= 20151117T022000 nan nan 20151117T022401,719747 SAFI31 EFHK 170220 nan
7 EFHK 24.907 60.316 TAF TAFEDITOR 34888601 TAF EFHK 170234Z 1703/1803 15013KT 9999 -RA BKN007 TEMPO 1703/1706 15015G25KT 6000 RA SCT004 BKN012 TEMPO 1706/1711 BKN004 PROB30 1706/1709 5000 BECMG 1711/1714 21008KT SCT006 BKN100 TEMPO 1717/1803 BKN008 SCT020CB= 20151117T023400 20151117T030000 20151118T030000 20151117T023502,193444 FTFI31 EFLK 170200 nan
8 EFIV 27.419 68.613 METAR AFTN 34886749 METAR EFIV 170220Z AUTO 00000KT 3800 -SHSN OVC011 M03/M05 Q1004= 20151117T022000 nan nan 20151117T022102,353246 SAFI34 EFHK 170220 nan
8 EFIV 27.419 68.613 TAF TAFEDITOR 34888514 TAF EFIV 170231Z 1703/1712 17003KT 9999 OVC013 TEMPO 1703/1712 3000 -SN BKN008= 20151117T023100 20151117T030000 20151117T120000 20151117T023201,933462 FCFI33 EFPP 170200 nan
22 EFRO 25.822 66.562 METAR AFTN 34887129 METAR EFRO 170220Z AUTO 14008KT 6000 -SG SCT001 BKN003 BKN008 M02/M02 Q1003= 20151117T022000 nan nan 20151117T022401,719747 SAFI31 EFHK 170220 nan
22 EFRO 25.822 66.562 TAF TAFEDITOR 34888498 TAF EFRO 170231Z 1703/1803 14008KT 2000 BR BKN005 TEMPO 1703/1713 5000 BKN004 PROB30 1703/1709 -FZDZ BECMG 1713/1715 14010KT 4000 SN BKN013 TEMPO 1715/1721 14010G20KT 1200 VV008 BECMG 1721/1723 3000 BR BKN005 TEMPO 1723/1803 0800 FZFG VV002= 20151117T023100 20151117T030000 20151118T030000 20151117T023201,757208 FTFI31 EFPP 170200 nan
