7 EFHK 24.907 60.316 METAR AFTN 35819713 METAR EFHK 202350Z 31011KT 4000 -DZ BR FEW004 BKN005 01/01 Q0984 TEMPO BKN004= 20151120T235000 nan nan 20151120T235401,960258 SAFI31 EFHK 202350 nan
7 EFHK 24.907 60.316 METAR AFTN 35824324 METAR EFHK 210020Z 31011KT 4000 -DZ BR FEW004 BKN006 01/01 Q0985 NOSIG= 20151121T002000 nan nan 20151121T001901,878830 SAFI31 EFHK 210020 nan
7 EFHK 24.907 60.316 METAR AFTN 35828396 METAR EFHK 210050Z 31013KT 7000 -DZ FEW004 BKN006 01/01 Q0985 TEMPO 4500= 20151121T005000 nan nan 20151121T004901,864183 SAFI31 EFHK 210050 nan
7 EFHK 24.907 60.316 METAR AFTN 35833513 METAR EFHK 210120Z 31013KT 7000 -RA FEW004 BKN008 01/01 Q0985 TEMPO 4500= 20151121T012000 nan nan 20151121T012002,087760 SAFI31 EFHK 210120 nan
7 EFHK 24.907 60.316 METAR AFTN 35837517 METAR EFHK 210150Z 31010KT 4000 -SNRA FEW005 BKN008 BKN027 01/00 Q0985 NOSIG= 20151121T015000 nan nan 20151121T015002,549175 SAFI31 EFHK 210150 nan
7 EFHK 24.907 60.316 METAR AFTN 35842528 METAR EFHK 210220Z 31011KT 4000 -SNRA FEW005 BKN008 01/00 Q0985 TEMPO 6000= 20151121T022000 nan nan 20151121T021902,258943 SAFI31 EFHK 210220 nan
7 EFHK 24.907 60.316 METAR AFTN 35846727 METAR EFHK 210250Z 30009KT 9999 -SNRA FEW005 BKN009 BKN011 01/00 Q0985 NOSIG= 20151121T025000 nan nan 20151121T024702,170144 SAFI31 EFHK 210250 nan
7 EFHK 24.907 60.316 METAR AFTN 35851908 METAR EFHK 210320Z 30009KT 9999 -SNRA SCT009 BKN011 01/00 Q0985 NOSIG= 20151121T032000 nan nan 20151121T031801,894501 SAFI31 EFHK 210320 nan
7 EFHK 24.907 60.316 METAR AFTN 35856142 METAR EFHK 210350Z 30011KT 9999 FEW009 BKN011 BKN070 01/00 Q0985 NOSIG= 20151121T035000 nan nan 20151121T034801,829951 SAFI31 EFHK 210350 nan
7 EFHK 24.907 60.316 METAR AFTN 35861344 METAR EFHK 210420Z 30010KT 9999 SCT009 BKN011 01/M00 Q0985 TEMPO BKN009= 20151121T042000 nan nan 20151121T041802,307036 SAFI31 EFHK 210420 nan
7 EFHK 24.907 60.316 METAR AFTN 35865628 METAR EFHK 210450Z 30009KT 9999 SCT009 BKN011 01/M01 Q0985 TEMPO BKN009= 20151121T045000 nan nan 20151121T044801,859636 SAFI31 EFHK 210450 nan
7 EFHK 24.907 60.316 METAR AFTN 35871365 METAR EFHK 210520Z 29010KT 9999 FEW008 BKN010 01/M00 Q0985 NOSIG= 20151121T052000 nan nan 20151121T052002,701267 SAFI31 EFHK 210520 nan
7 EFHK 24.907 60.316 METAR AFTN 35877649 METAR EFHK 210550Z 29010KT 9999 -SN SCT008 BKN012 01/M00 Q0985 TEMPO 6000 BKN009= 20151121T055000 nan nan 20151121T054801,947456 SAFI31 EFHK 210550 nan
7 EFHK 24.907 60.316 METAR AFTN 35883294 METAR EFHK 210620Z 30011KT 4000 -SN FEW007 BKN012 BKN020 01/M01 Q0985 TEMPO 5000= 20151121T062000 nan nan 20151121T062002,548643 SAFI31 EFHK 210620 nan
7 EFHK 24.907 60.316 METAR AFTN 35887464 METAR EFHK 210650Z 28008KT 4000 -SN FEW004 BKN006 BKN012 00/M00 Q0985 TEMPO 5000 SCT006 BKN010= 20151121T065000 nan nan 20151121T065102,225770 SAFI31 EFHK 210650 nan
7 EFHK 24.907 60.316 METAR AFTN 35892737 METAR EFHK 210720Z 29009KT 9999 -SN BKN006 BKN018 00/M00 Q0985 TEMPO 5000 SCT006 BKN010= 20151121T072000 nan nan 20151121T071902,509324 SAFI31 EFHK 210720 nan
7 EFHK 24.907 60.316 METAR AFTN 35896796 METAR EFHK 210750Z 27009KT 5000 -SN BKN006 BKN012 00/M00 Q0985 TEMPO 8000 SCT006 BKN010= 20151121T075000 nan nan 20151121T074901,422824 SAFI31 EFHK 210750 nan
7 EFHK 24.907 60.316 METAR AFTN 35901999 METAR EFHK 210820Z 27010KT 9999 VCSH SCT006 BKN020 00/M00 Q0985 TEMPO SCT008 BKN013= 20151121T082000 nan nan 20151121T081901,399898 SAFI31 EFHK 210820 nan
7 EFHK 24.907 60.316 METAR AFTN 35906576 METAR EFHK 210850Z 28009KT 9999 FEW008 BKN011 01/M00 Q0985 NOSIG= 20151121T085000 nan nan 20151121T084901,933374 SAFI31 EFHK 210850 nan
7 EFHK 24.907 60.316 METAR AFTN 35912101 METAR EFHK 210920Z 27010KT 9999 VCSH SCT008 BKN014 01/00 Q0985 TEMPO BKN009= 20151121T092000 nan nan 20151121T091902,139568 SAFI31 EFHK 210920 nan
7 EFHK 24.907 60.316 METAR AFTN 35916149 METAR EFHK 210950Z 26012KT 9999 FEW009 BKN012 01/M01 Q0985 NOSIG= 20151121T095000 nan nan 20151121T094902,142450 SAFI31 EFHK 210950 nan
7 EFHK 24.907 60.316 METAR AFTN 35921547 METAR EFHK 211020Z 27010KT 9999 FEW009 BKN012 01/M00 Q0985 NOSIG= 20151121T102000 nan nan 20151121T101802,296682 SAFI31 EFHK 211020 nan
7 EFHK 24.907 60.316 METAR AFTN 35925614 METAR EFHK 211050Z 26009KT 9999 VCSH FEW010 BKN013 01/00 Q0985 TEMPO SCT011 BKN016= 20151121T105000 nan nan 20151121T104803,974459 SAFI31 EFHK 211050 nan
7 EFHK 24.907 60.316 METAR AFTN 35931567 METAR EFHK 211120Z 25009KT 9999 VCSH FEW008 BKN012 01/M00 Q0985 TEMPO SCT011 BKN016= 20151121T112000 nan nan 20151121T111902,109867 SAFI31 EFHK 211120 nan
7 EFHK 24.907 60.316 METAR AFTN 35937900 METAR EFHK 211150Z 25010KT 9999 FEW010 BKN014 01/M00 Q0985 BECMG BKN015= 20151121T115000 nan nan 20151121T114902,230774 SAFI31 EFHK 211150 nan
7 EFHK 24.907 60.316 TAF TAFEDITOR 35656337 TAF AMD EFHK 200720Z 2007/2106 35010KT 6000 -RA BKN004 TEMPO 2007/2016 2000 -RADZ SCT004 BKN007 BECMG 2016/2018 8000 BKN006 PROB30 TEMPO 2018/2101 4000 -SNRA BECMG 2101/2103 29006KT= 20151120T072000 20151120T070000 20151121T060000 20151120T072102,283683 FTFI31 EFLK 200500 AAA AAA
7 EFHK 24.907 60.316 TAF TAFEDITOR 35708005 TAF AMD EFHK 201224Z 2012/2112 30010KT 5000 BR BKN004 TEMPO 2012/2016 VRB02KT 2500 DZ BKN002 BECMG 2016/2018 BKN006 TEMPO 2018/2102 4000 -SNRA SCT006 BKN012 BECMG 2102/2104 8000 NSW BKN015 TEMPO 2109/2112 BKN010= 20151120T122400 20151120T120000 20151121T120000 20151120T122502,030985 FTFI31 EFLK 201100 AAA AAA
7 EFHK 24.907 60.316 TAF TAFEDITOR 35711646 TAF AMD EFHK 201247Z 2012/2112 30010KT 5000 BR BKN004 TEMPO 2012/2016 VRB02KT 1200 DZ BKN002 BECMG 2016/2018 BKN006 TEMPO 2018/2102 4000 -SNRA SCT006 BKN012 BECMG 2102/2104 8000 NSW BKN015 TEMPO 2109/2112 BKN010= 20151120T124700 20151120T120000 20151121T120000 20151120T124801,640367 FTFI31 EFLK 201100 AAB AAB
7 EFHK 24.907 60.316 TAF TAFEDITOR 35878492 TAF AMD EFHK 210557Z 2106/2206 28008KT 9999 SCT008 BKN015 TEMPO 2106/2110 4000 -SN BKN009 TEMPO 2116/2206 4000 -SN BKN012 PROB30 TEMPO 2200/2203 1400 SHSN BKN008 BKN015CB= 20151121T055700 20151121T060000 20151122T060000 20151121T055802,018761 FTFI31 EFLK 210500 AAA AAA
7 EFHK 24.907 60.316 TAF TAFEDITOR 35607838 TAF EFHK 200235Z 2003/2103 02010KT 6000 -RA BKN004 TEMPO 2003/2021 4000 -RADZ SCT004 BKN007 BECMG 2021/2023 BKN006 PROB30 TEMPO 2021/2103 3000 -SN= 20151120T023500 20151120T030000 20151121T030000 20151120T023601,833254 FTFI31 EFLK 200200 nan
7 EFHK 24.907 60.316 TAF TAFEDITOR 35636538 TAF EFHK 200525Z 2006/2106 35010KT 6000 -RA BKN004 TEMPO 2006/2016 4000 -RADZ SCT004 BKN007 BECMG 2016/2018 8000 BKN006 PROB30 TEMPO 2018/2101 4000 -SNRA BECMG 2101/2103 29006KT= 20151120T052500 20151120T060000 20151121T060000 20151120T052602,262723 FTFI31 EFLK 200500 nan
7 EFHK 24.907 60.316 TAF TAFEDITOR 35667368 TAF EFHK 200826Z 2009/2109 32009KT 6000 -RA BKN004 TEMPO 2009/2016 2500 -RADZ SCT004 BKN007 BECMG 2016/2018 8000 BKN006 TEMPO 2018/2101 4000 -RASN SCT006 BKN012 BECMG 2101/2103 BKN015 TEMPO 2103/2107 BKN008= 20151120T082600 20151120T090000 20151121T090000 20151120T082701,707910 FTFI31 EFLK 200800 nan
7 EFHK 24.907 60.316 TAF TAFEDITOR 35697568 TAF EFHK 201125Z 2012/2112 30010KT 5000 -RA BKN004 TEMPO 2012/2016 VRB02KT 2500 DZ SCT004 BKN007 BECMG 2016/2018 8000 BKN006 TEMPO 2018/2102 4000 -SNRA SCT006 BKN012 BECMG 2102/2104 BKN015 TEMPO 2109/2112 BKN010= 20151120T112500 20151120T120000 20151121T120000 20151120T112602,108706 FTFI31 EFLK 201100 nan
7 EFHK 24.907 60.316 TAF TAFEDITOR 35729242 TAF EFHK 201436Z 2015/2115 30007KT 5000 BR BKN004 TEMPO 2015/2017 3000 BKN006 BECMG 2017/2019 BKN006 TEMPO 2019/2102 4000 -SNRA SCT006 BKN012 BECMG 2102/2104 8000 NSW BKN015 TEMPO 2109/2112 BKN010= 20151120T143600 20151120T150000 20151121T150000 20151120T143701,531506 FTFI31 EFLK 201400 nan
7 EFHK 24.907 60.316 TAF TAFEDITOR 35758809 TAF EFHK 201730Z 2018/2118 30007KT 5000 BKN006 TEMPO 2018/2024 3000 BR BKN004 BECMG 2100/2103 BKN012 TEMPO 2102/2107 4000 -SNRA BKN006 TEMPO 2107/2112 9000 BKN006 BECMG 2112/2114 9000 BKN015= 20151120T173000 20151120T180000 20151121T180000 20151120T173101,358448 FTFI31 EFLK 201700 nan
7 EFHK 24.907 60.316 TAF TAFEDITOR 35788055 TAF EFHK 202036Z 2021/2121 31007KT 3000 -DZ BKN004 TEMPO 2021/2101 5000 BKN006 BECMG 2101/2103 5000 -RASN BKN006 TEMPO 2103/2107 3000 BKN010 TEMPO 2107/2112 9000 BKN010 BECMG 2112/2114 9999 BKN015 BECMG 2119/2121 5000 -SN BKN010= 20151120T203600 20151120T210000 20151121T210000 20151120T203701,376039 FTFI31 EFLK 202000 nan
7 EFHK 24.907 60.316 TAF AFTN 35818299 TAF EFHK 202340Z NIL= 20151120T234000 nan nan 20151120T234502,519535 FTFI31 EFHK 202300 nan
7 EFHK 24.907 60.316 TAF TAFEDITOR 35817893 TAF EFHK 202343Z 2100/2124 30009KT 3000 -DZ BKN004 TEMPO 2100/2102 5000 BKN006 BECMG 2102/2104 5000 -RASN BKN006 TEMPO 2104/2107 3000 BKN010 TEMPO 2107/2110 9000 BKN010 BECMG 2110/2112 9999 BKN015 BECMG 2114/2116 5000 -SN BKN012 BECMG 2117/2119 9999 BKN020= 20151120T234300 20151121T000000 20151121T235900 20151120T234401,418571 FTFI31 EFLK 202300 RRA RRA
7 EFHK 24.907 60.316 TAF TAFEDITOR 35845395 TAF EFHK 210238Z 2103/2203 29010KT 4000 -SNRA BKN008 BECMG 2103/2105 9999 TEMPO 2105/2110 SCT008 BKN015 BECMG 2110/2112 BKN015 BECMG 2114/2115 5000 -SN PROB30 TEMPO 2115/2119 2000 SHSN BKN015CB BECMG 2119/2121 9999= 20151121T023800 20151121T030000 20151122T030000 20151121T023901,576594 FTFI31 EFLK 210200 nan
7 EFHK 24.907 60.316 TAF TAFEDITOR 35875733 TAF EFHK 210538Z 2106/2206 28008KT 9999 SCT008 BKN015 TEMPO 2106/2110 BKN009 TEMPO 2116/2206 4000 -SN BKN012 PROB30 TEMPO 2200/2203 1400 SHSN BKN008 BKN015CB= 20151121T053800 20151121T060000 20151122T060000 20151121T053903,044675 FTFI31 EFLK 210500 nan
7 EFHK 24.907 60.316 TAF TAFEDITOR 35903207 TAF EFHK 210824Z 2109/2209 27008KT 9999 SCT008 BKN015 TEMPO 2109/2111 BKN012 PROB40 2109/2110 4000 -SN BKN009 TEMPO 2116/2206 4000 -SN BKN012 PROB30 TEMPO 2200/2203 1400 SHSN BKN008 BKN015CB= 20151121T082400 20151121T090000 20151122T090000 20151121T082501,891046 FTFI31 EFLK 210800 nan
7 EFHK 24.907 60.316 TAF TAFEDITOR 35932817 TAF EFHK 211124Z 2112/2212 26008KT 9999 FEW008 BKN015 TEMPO 2112/2113 BKN013 TEMPO 2116/2206 4000 -SN BKN012 PROB30 TEMPO 2123/2203 1400 SHSN BKN008 BKN015CB= 20151121T112400 20151121T120000 20151122T120000 20151121T112502,491119 FTFI31 EFLK 211100 nan
8 EFIV 27.419 68.613 METAR AFTN 35819622 METAR EFIV 202350Z AUTO 20008KT 160V240 9999 OVC008 M05/M07 Q0994= 20151120T235000 nan nan 20151120T235102,682855 SAFI34 EFHK 202350 nan
8 EFIV 27.419 68.613 METAR AFTN 35824540 METAR EFIV 210020Z AUTO 20007KT 170V250 9999 OVC008 M06/M07 Q0994= 20151121T002000 nan nan 20151121T002102,204397 SAFI34 EFHK 210020 nan
8 EFIV 27.419 68.613 METAR AFTN 35828561 METAR EFIV 210050Z AUTO 22007KT 9999 OVC008 M06/M07 Q0994= 20151121T005000 nan nan 20151121T005102,202357 SAFI34 EFHK 210050 nan
8 EFIV 27.419 68.613 METAR AFTN 35834101 METAR EFIV 210120Z AUTO 19005KT 160V240 9999 OVC008 M06/M07 Q0994= 20151121T012000 nan nan 20151121T012103,377318 SAFI34 EFHK 210120 nan
8 EFIV 27.419 68.613 METAR AFTN 35837590 METAR EFIV 210150Z AUTO 21006KT 9999 OVC007 M06/M08 Q0994= 20151121T015000 nan nan 20151121T015102,671520 SAFI34 EFHK 210150 nan
8 EFIV 27.419 68.613 METAR AFTN 35843300 METAR EFIV 210220Z AUTO 20005KT 170V230 9999 OVC006 M06/M08 Q0994= 20151121T022000 nan nan 20151121T022102,973699 SAFI34 EFHK 210220 nan
8 EFIV 27.419 68.613 METAR AFTN 35847030 METAR EFIV 210250Z AUTO 20004KT 150V260 9999 OVC006 M06/M08 Q0994= 20151121T025000 nan nan 20151121T025102,960898 SAFI34 EFHK 210250 nan
8 EFIV 27.419 68.613 METAR AFTN 35852590 METAR EFIV 210320Z AUTO 21006KT 9999 OVC006 M07/M08 Q0995= 20151121T032000 nan nan 20151121T032102,895500 SAFI34 EFHK 210320 nan
8 EFIV 27.419 68.613 METAR AFTN 35856304 METAR EFIV 210350Z AUTO 26005KT 230V300 9999 OVC006 M07/M08 Q0995= 20151121T035000 nan nan 20151121T035101,923884 SAFI34 EFHK 210350 nan
8 EFIV 27.419 68.613 METAR AFTN 35861623 METAR EFIV 210420Z AUTO 22004KT 9999 OVC005 M07/M08 Q0995= 20151121T042000 nan nan 20151121T042102,558391 SAFI34 EFHK 210420 nan
8 EFIV 27.419 68.613 METAR AFTN 35865805 METAR EFIV 210450Z AUTO 21005KT 180V250 9999 OVC005 M07/M08 Q0995= 20151121T045000 nan nan 20151121T045102,134760 SAFI34 EFHK 210450 nan
8 EFIV 27.419 68.613 METAR AFTN 35871668 METAR EFIV 210520Z AUTO 22003KT 9999 OVC005 M07/M08 Q0995= 20151121T052000 nan nan 20151121T052102,878812 SAFI34 EFHK 210520 nan
8 EFIV 27.419 68.613 METAR AFTN 35877919 METAR EFIV 210550Z AUTO 21003KT 9999 OVC005 M07/M08 Q0995= 20151121T055000 nan nan 20151121T055102,155319 SAFI34 EFHK 210550 nan
8 EFIV 27.419 68.613 METAR AFTN 35883528 METAR EFIV 210620Z AUTO 23003KT 9999 OVC005 M08/M09 Q0995= 20151121T062000 nan nan 20151121T062102,535395 SAFI34 EFHK 210620 nan
8 EFIV 27.419 68.613 METAR AFTN 35887461 METAR EFIV 210650Z AUTO 20003KT 9999 OVC004 M08/M08 Q0995= 20151121T065000 nan nan 20151121T065102,176035 SAFI34 EFHK 210650 nan
8 EFIV 27.419 68.613 METAR AFTN 35893221 METAR EFIV 210720Z AUTO 21002KT 9999 OVC004 M08/M08 Q0996= 20151121T072000 nan nan 20151121T072102,370784 SAFI34 EFHK 210720 nan
8 EFIV 27.419 68.613 METAR AFTN 35896981 METAR EFIV 210750Z AUTO 26003KT 9999 OVC004 M08/M09 Q0996= 20151121T075000 nan nan 20151121T075101,649720 SAFI34 EFHK 210750 nan
8 EFIV 27.419 68.613 METAR AFTN 35902457 METAR EFIV 210820Z AUTO 24002KT 9999 OVC004 M08/M09 Q0996= 20151121T082000 nan nan 20151121T082102,370177 SAFI34 EFHK 210820 nan
8 EFIV 27.419 68.613 METAR AFTN 35906784 METAR EFIV 210850Z AUTO 21002KT 9999 OVC003 M08/M09 Q0996= 20151121T085000 nan nan 20151121T085102,436592 SAFI34 EFHK 210850 nan
8 EFIV 27.419 68.613 METAR AFTN 35912632 METAR EFIV 210920Z AUTO 22002KT 9999 OVC004 M09/M09 Q0996= 20151121T092000 nan nan 20151121T092102,201134 SAFI34 EFHK 210920 nan
8 EFIV 27.419 68.613 METAR AFTN 35916368 METAR EFIV 210950Z AUTO 23003KT 9999 OVC003 M09/M09 Q0996= 20151121T095000 nan nan 20151121T095103,137459 SAFI34 EFHK 210950 nan
8 EFIV 27.419 68.613 METAR AFTN 35918452 METAR EFIV 211004Z 20001KT 2000 BR OVC003 M09/M10 Q0996= 20151121T100400 nan nan 20151121T100602,282007 SAFI34 EFHK 210950 COR COR
8 EFIV 27.419 68.613 METAR AFTN 35922158 METAR EFIV 211020Z 23003KT 2000 BR OVC003 M09/M10 Q0996= 20151121T102000 nan nan 20151121T102103,128214 SAFI34 EFHK 211020 nan
8 EFIV 27.419 68.613 METAR AFTN 35925898 METAR EFIV 211050Z VRB01KT 0800 FG VV003 M09/M10 Q0996= 20151121T105000 nan nan 20151121T105102,575555 SAFI34 EFHK 211050 nan
8 EFIV 27.419 68.613 METAR AFTN 35934205 METAR EFIV 211126Z NIL= 20151121T112600 nan nan 20151121T112702,663163 SAFI34 EFHK 211120 nan
8 EFIV 27.419 68.613 METAR AFTN 35934263 METAR EFIV 211128Z 27002KT 0600 FZFG VV003 M09/M10 Q0996= 20151121T112800 nan nan 20151121T112902,559818 SAFI34 EFHK 211120 nan
8 EFIV 27.419 68.613 METAR AFTN 35938183 METAR EFIV 211150Z 00000KT 0900 FZFG VV004 M10/M11 Q0996= 20151121T115000 nan nan 20151121T115102,592451 SAFI34 EFHK 211150 nan
8 EFIV 27.419 68.613 TAF TAFEDITOR 35921157 TAF AMD EFIV 211012Z 2110/2118 25003KT 9999 OVC004 TEMPO 2110/2118 1500 BR OVC002= 20151121T101200 20151121T100000 20151121T180000 20151121T101302,090537 FCFI33 EFPP 210800 AAA AAA
8 EFIV 27.419 68.613 TAF AFTN 35789293 TAF EFIV 202040Z NIL= 20151120T204000 nan nan 20151120T204502,484032 FCFI33 EFHK 202000 nan
8 EFIV 27.419 68.613 TAF AFTN 35818282 TAF EFIV 202340Z NIL= 20151120T234000 nan nan 20151120T234502,479961 FCFI33 EFHK 202300 nan
8 EFIV 27.419 68.613 TAF AFTN 35846485 TAF EFIV 210240Z NIL= 20151121T024000 nan nan 20151121T024502,330141 FCFI33 EFHK 210200 nan
8 EFIV 27.419 68.613 TAF TAFEDITOR 35875726 TAF EFIV 210538Z 2106/2115 21003KT 9999 BKN006 BECMG 2106/2108 4000 BR BKN003 BECMG 2109/2111 9999 FEW002 PROB30 2111/2115 2000 BR BKN002= 20151121T053800 20151121T060000 20151121T150000 20151121T053903,003640 FCFI33 EFPP 210500 nan
8 EFIV 27.419 68.613 TAF TAFEDITOR 35904408 TAF EFIV 210830Z 2109/2118 25003KT 9999 OVC004 TEMPO 2112/2118 2000 BR BKN002= 20151121T083000 20151121T090000 20151121T180000 20151121T083102,152822 FCFI33 EFPP 210800 nan
8 EFIV 27.419 68.613 TAF TAFEDITOR 35935621 TAF EFIV 211135Z 2112/2118 36003KT 4000 BR OVC003 TEMPO 2112/2118 0800 FZFG VV002= 20151121T113500 20151121T120000 20151121T180000 20151121T113601,820246 FCFI33 EFPP 211100 nan
22 EFRO 25.822 66.562 METAR AFTN 35819717 METAR EFRO 202350Z AUTO 03007KT 9000 BKN002 OVC004 M07/M07 Q0994= 20151120T235000 nan nan 20151120T235401,960258 SAFI31 EFHK 202350 nan
22 EFRO 25.822 66.562 METAR AFTN 35824785 METAR EFRO 210020Z AUTO 05007KT 010V080 9999 BKN002 OVC004 M07/M08 Q0994= 20151121T002000 nan nan 20151121T002103,191448 SAFI31 EFHK 210020 nan
22 EFRO 25.822 66.562 METAR AFTN 35828570 METAR EFRO 210050Z AUTO 04008KT 4800 BR BKN002 M07/M08 Q0993= 20151121T005000 nan nan 20151121T005102,289805 SAFI31 EFHK 210050 nan
22 EFRO 25.822 66.562 METAR AFTN 35834107 METAR EFRO 210120Z AUTO 02008KT 2000 BR BKN002 M08/M08 Q0994= 20151121T012000 nan nan 20151121T012103,464039 SAFI31 EFHK 210120 nan
22 EFRO 25.822 66.562 METAR AFTN 35837597 METAR EFRO 210150Z AUTO 01008KT 1200 BR OVC002 M08/M08 Q0994= 20151121T015000 nan nan 20151121T015102,738392 SAFI31 EFHK 210150 nan
22 EFRO 25.822 66.562 METAR AFTN 35843302 METAR EFRO 210220Z AUTO 02008KT 1000 FZFG VV002 M08/M08 Q0994= 20151121T022000 nan nan 20151121T022103,023719 SAFI31 EFHK 210220 nan
22 EFRO 25.822 66.562 METAR AFTN 35847039 METAR EFRO 210250Z AUTO 02007KT 1600 BR VV002 M08/M08 Q0994= 20151121T025000 nan nan 20151121T025103,074902 SAFI31 EFHK 210250 nan
22 EFRO 25.822 66.562 METAR AFTN 35852592 METAR EFRO 210320Z AUTO 01006KT 2400 BR VV002 M08/M08 Q0994= 20151121T032000 nan nan 20151121T032102,940038 SAFI31 EFHK 210320 nan
22 EFRO 25.822 66.562 METAR AFTN 35856306 METAR EFRO 210350Z AUTO 02008KT 2700 BR VV002 M08/M08 Q0993= 20151121T035000 nan nan 20151121T035101,982302 SAFI31 EFHK 210350 nan
22 EFRO 25.822 66.562 METAR AFTN 35861624 METAR EFRO 210420Z AUTO 02008KT 2800 BR VV002 M08/M08 Q0993= 20151121T042000 nan nan 20151121T042102,581650 SAFI31 EFHK 210420 nan
22 EFRO 25.822 66.562 METAR AFTN 35865806 METAR EFRO 210450Z AUTO 02010KT 2200 BR OVC002 M08/M09 Q0993= 20151121T045000 nan nan 20151121T045102,152951 SAFI31 EFHK 210450 nan
22 EFRO 25.822 66.562 METAR AFTN 35871669 METAR EFRO 210520Z AUTO 02009KT 5000 OVC002 M08/M09 Q0993= 20151121T052000 nan nan 20151121T052102,946315 SAFI31 EFHK 210520 nan
22 EFRO 25.822 66.562 METAR AFTN 35877924 METAR EFRO 210550Z AUTO 01007KT 9000 OVC002 M08/M09 Q0993= 20151121T055000 nan nan 20151121T055102,248909 SAFI31 EFHK 210550 nan
22 EFRO 25.822 66.562 METAR AFTN 35883529 METAR EFRO 210620Z AUTO 01008KT 5000 OVC002 M08/M09 Q0993= 20151121T062000 nan nan 20151121T062102,556341 SAFI31 EFHK 210620 nan
22 EFRO 25.822 66.562 METAR AFTN 35887465 METAR EFRO 210650Z AUTO 01008KT 4100 BR OVC003 M08/M09 Q0993= 20151121T065000 nan nan 20151121T065102,245504 SAFI31 EFHK 210650 nan
22 EFRO 25.822 66.562 METAR AFTN 35893223 METAR EFRO 210720Z AUTO 01008KT 2600 BR SCT002 BKN004 OVC006 M08/M08 Q0993= 20151121T072000 nan nan 20151121T072102,437070 SAFI31 EFHK 210720 nan
22 EFRO 25.822 66.562 METAR AFTN 35896988 METAR EFRO 210750Z AUTO 36008KT 1900 BR OVC002 M08/M09 Q0994= 20151121T075000 nan nan 20151121T075101,721426 SAFI31 EFHK 210750 nan
22 EFRO 25.822 66.562 METAR AFTN 35902475 METAR EFRO 210820Z AUTO 35008KT 1300 BR OVC002 M08/M09 Q0994= 20151121T082000 nan nan 20151121T082102,452390 SAFI31 EFHK 210820 nan
22 EFRO 25.822 66.562 METAR AFTN 35906786 METAR EFRO 210850Z AUTO 36008KT 1300 BR OVC002 M08/M09 Q0994= 20151121T085000 nan nan 20151121T085102,484796 SAFI31 EFHK 210850 nan
22 EFRO 25.822 66.562 METAR AFTN 35912633 METAR EFRO 210920Z AUTO 35007KT 2100 BR OVC002 M08/M08 Q0994= 20151121T092000 nan nan 20151121T092102,223400 SAFI31 EFHK 210920 nan
22 EFRO 25.822 66.562 METAR AFTN 35916377 METAR EFRO 210950Z AUTO 35006KT 2600 BR OVC002 M08/M08 Q0994= 20151121T095000 nan nan 20151121T095103,617446 SAFI31 EFHK 210950 nan
22 EFRO 25.822 66.562 METAR AFTN 35922171 METAR EFRO 211020Z AUTO 36006KT 3700 BR OVC003 M07/M08 Q0994= 20151121T102000 nan nan 20151121T102103,231659 SAFI31 EFHK 211020 nan
22 EFRO 25.822 66.562 METAR AFTN 35925899 METAR EFRO 211050Z AUTO 35006KT 4800 BR OVC003 M07/M08 Q0994= 20151121T105000 nan nan 20151121T105102,600003 SAFI31 EFHK 211050 nan
22 EFRO 25.822 66.562 METAR AFTN 35932245 METAR EFRO 211120Z AUTO 35006KT 5000 OVC003 M07/M08 Q0994= 20151121T112000 nan nan 20151121T112104,306513 SAFI31 EFHK 211120 nan
22 EFRO 25.822 66.562 METAR AFTN 35938185 METAR EFRO 211150Z AUTO 33007KT 6000 OVC003 M08/M09 Q0994= 20151121T115000 nan nan 20151121T115102,635104 SAFI31 EFHK 211150 nan
22 EFRO 25.822 66.562 TAF TAFEDITOR 35656718 TAF AMD EFRO 200723Z 2007/2106 09003KT 9999 -SN OVC020 TEMPO 2007/2011 2500 BCFG BKN014 BECMG 2011/2013 8000 -SN BKN010 TEMPO 2011/2106 4000 SN BKN004= 20151120T072300 20151120T070000 20151121T060000 20151120T072401,406497 FTFI31 EFPP 200500 AAB AAB
22 EFRO 25.822 66.562 TAF TAFEDITOR 35780097 TAF AMD EFRO 201945Z 2020/2118 05005KT 9999 FEW002 BKN006 TEMPO 2021/2106 7000 BKN004 BECMG 2106/2108 SCT007 BKN015 TEMPO 2108/2118 BKN006= 20151120T194500 20151120T200000 20151121T180000 20151120T194701,451412 FTFI31 EFPP 201700 AAA AAA
22 EFRO 25.822 66.562 TAF TAFEDITOR 35828593 TAF AMD EFRO 210052Z 2100/2124 04010KT 2500 BR BKN002 BECMG 2101/2103 9999 BKN005 BECMG 2106/2108 SCT006 BKN011 TEMPO 2108/2124 BKN006= 20151121T005200 20151121T000000 20151121T235900 20151121T005301,826831 FTFI31 EFPP 202300 AAA AAA
22 EFRO 25.822 66.562 TAF TAFEDITOR 35896883 TAF AMD EFRO 210749Z 2108/2206 01010KT 8000 BKN003 TEMPO 2108/2111 1200 BR BECMG 2111/2113 9999 BKN005= 20151121T074900 20151121T080000 20151122T060000 20151121T075001,741622 FTFI31 EFPP 210500 AAA AAA
22 EFRO 25.822 66.562 TAF TAFEDITOR 35608015 TAF EFRO 200237Z 2003/2103 06003KT 9999 OVC020 TEMPO 2003/2006 BKN012 BECMG 2011/2013 8000 -SN BKN010 TEMPO 2011/2103 4000 SN BKN004= 20151120T023700 20151120T030000 20151121T030000 20151120T023802,100029 FTFI31 EFPP 200200 nan
22 EFRO 25.822 66.562 TAF TAFEDITOR 35636928 TAF EFRO 200527Z 2006/2106 09003KT 9999 OVC020 TEMPO 2006/2011 BKN014 BECMG 2011/2013 8000 -SN BKN010 TEMPO 2011/2106 4000 SN BKN004= 20151120T052700 20151120T060000 20151121T060000 20151120T052801,350469 FTFI31 EFPP 200500 nan
22 EFRO 25.822 66.562 TAF TAFEDITOR 35667633 TAF EFRO 200827Z 2009/2109 09003KT 9999 -SN OVC020 TEMPO 2009/2011 2500 BCFG BKN014 BECMG 2013/2015 8000 -SN BKN010 TEMPO 2015/2109 1400 SN BKN004= 20151120T082700 20151120T090000 20151121T090000 20151120T082801,723080 FTFI31 EFPP 200800 nan
22 EFRO 25.822 66.562 TAF TAFEDITOR 35698777 TAF EFRO 201134Z 2012/2112 09003KT 9999 OVC020 TEMPO 2012/2016 2000 -SN BKN014 BECMG 2016/2018 6000 -SN BKN010 TEMPO 2018/2106 1400 SN BKN004 TEMPO 2106/2112 4000 BKN005= 20151120T113400 20151120T120000 20151121T120000 20151120T113501,864382 FTFI31 EFPP 201100 nan
22 EFRO 25.822 66.562 TAF TAFEDITOR 35728548 TAF EFRO 201429Z 2015/2115 09003KT 9999 OVC020 TEMPO 2015/2018 2000 -SN BKN014 BECMG 2018/2020 6000 -SN BKN010 TEMPO 2020/2106 1400 SN BKN004 TEMPO 2106/2115 4000 BKN005= 20151120T142900 20151120T150000 20151121T150000 20151120T143002,588523 FTFI31 EFPP 201400 nan
22 EFRO 25.822 66.562 TAF TAFEDITOR 35759934 TAF EFRO 201737Z 2018/2118 06005KT 9999 FEW002 BKN008 PROB30 2019/2100 4000 -SN BECMG 2100/2102 FEW004 BKN015 TEMPO 2100/2106 2500 -SN BKN004 TEMPO 2106/2112 4000 -SN BKN005= 20151120T173700 20151120T180000 20151121T180000 20151120T173901,619687 FTFI31 EFPP 201700 nan
22 EFRO 25.822 66.562 TAF TAFEDITOR 35786975 TAF EFRO 202025Z 2021/2121 05005KT 9999 BKN006 TEMPO 2021/2106 7000 BKN004 BECMG 2106/2108 SCT007 BKN015 TEMPO 2108/2121 BKN006= 20151120T202500 20151120T210000 20151121T210000 20151120T202602,009475 FTFI31 EFPP 202000 nan
22 EFRO 25.822 66.562 TAF TAFEDITOR 35816487 TAF EFRO 202334Z 2100/2124 04010KT 9999 BKN003 BECMG 2100/2102 BKN006 TEMPO 2100/2102 7000 BECMG 2106/2108 SCT006 BKN011 TEMPO 2108/2124 BKN006= 20151120T233400 20151121T000000 20151121T235900 20151120T233502,522510 FTFI31 EFPP 202300 nan
22 EFRO 25.822 66.562 TAF TAFEDITOR 35844819 TAF EFRO 210231Z 2103/2203 03010KT 0900 FZFG BKN001 BECMG 2103/2105 9999 NSW BKN003 BECMG 2106/2108 BKN005 TEMPO 2108/2203 SCT006 BKN011= 20151121T023100 20151121T030000 20151122T030000 20151121T023201,500575 FTFI31 EFPP 210200 nan
22 EFRO 25.822 66.562 TAF TAFEDITOR 35875620 TAF EFRO 210538Z 2106/2206 03010KT 8000 BKN005 TEMPO 2106/2109 3000 BR OVC002 TEMPO 2109/2115 SCT006 BKN010 BECMG 2115/2118 BKN010= 20151121T053800 20151121T060000 20151122T060000 20151121T053902,304534 FTFI31 EFPP 210500 nan
22 EFRO 25.822 66.562 TAF TAFEDITOR 35904366 TAF EFRO 210830Z 2109/2209 01010KT 8000 BKN003 TEMPO 2109/2112 1200 BR BECMG 2112/2114 9999 BKN005= 20151121T083000 20151121T090000 20151122T090000 20151121T083101,964170 FTFI31 EFPP 210800 nan
22 EFRO 25.822 66.562 TAF TAFEDITOR 35935617 TAF EFRO 211135Z 2112/2212 36008KT 8000 OVC003 TEMPO 2112/2116 2000 BR OVC001 TEMPO 2116/2209 BKN007= 20151121T113500 20151121T120000 20151122T120000 20151121T113601,612197 FTFI31 EFPP 211100 nan
