5 EFHA 24.805 61.855 METAR FMIAWOS 420406794 METAR EFHA 010020Z AUTO 27008KT CAVOK M03/M04 Q1007= 20200101T002000 nan nan 20200101T002103,224238 SAFI31 EFHA 010020 nan
5 EFHA 24.805 61.855 METAR FMIAWOS 420413742 METAR EFHA 010050Z AUTO 27007KT 240V300 CAVOK M02/M04 Q1006= 20200101T005000 nan nan 20200101T005102,365245 SAFI31 EFHA 010050 nan
5 EFHA 24.805 61.855 METAR AFTN 420394064 METAR EFHA 312350Z AUTO 26010KT CAVOK M03/M04 Q1007= 20191231T235000 nan nan 20191231T235401,821966 SAFI32 EFKL 312350 nan
7 EFHK 24.907 60.316 METAR AFTN 420407290 METAR EFHK 010020Z 27008KT CAVOK M01/M03 Q1010 NOSIG= 20200101T002000 nan nan 20200101T002104,177225 SAFI31 EFHK 010020 nan
7 EFHK 24.907 60.316 METAR AFTN 420413738 METAR EFHK 010050Z 26009KT CAVOK M01/M03 Q1010 NOSIG= 20200101T005000 nan nan 20200101T005002,915153 SAFI31 EFHK 010050 nan
7 EFHK 24.907 60.316 METAR AFTN 420393918 METAR EFHK 312350Z 27008KT CAVOK M01/M03 Q1010 NOSIG= 20191231T235000 nan nan 20191231T235202,571376 SAFI31 EFKL 312350 nan
10 EFJY 25.675 62.402 METAR FMIAWOS 420406808 METAR EFJY 010020Z AUTO 26007KT CAVOK M03/M05 Q1005= 20200101T002000 nan nan 20200101T002103,238858 SAFI31 EFJY 010020 nan
10 EFJY 25.675 62.402 METAR FMIAWOS 420413745 METAR EFJY 010050Z AUTO 25007KT CAVOK M03/M05 Q1005= 20200101T005000 nan nan 20200101T005102,383167 SAFI31 EFJY 010050 nan
10 EFJY 25.675 62.402 METAR AFTN 420394062 METAR EFJY 312350Z AUTO 27007KT CAVOK M03/M05 Q1005= 20191231T235000 nan nan 20191231T235401,821966 SAFI32 EFKL 312350 nan
11 EFKE 24.579 65.780 METAR AFTN 420407297 METAR EFKE 010020Z AUTO 21003KT 170V230 CAVOK M10/M11 Q1000= 20200101T002000 nan nan 20200101T002104,393799 SAFI31 EFKE 010020 nan
11 EFKE 24.579 65.780 METAR AFTN 420413765 METAR EFKE 010050Z AUTO VRB02KT 9999 FZUP NCD M10/M11 Q1000= 20200101T005000 nan nan 20200101T005102,921585 SAFI31 EFKE 010050 nan
11 EFKE 24.579 65.780 METAR AFTN 420394074 METAR EFKE 312350Z AUTO 27003KT CAVOK M08/M08 Q1001= 20191231T235000 nan nan 20191231T235401,821966 SAFI32 EFKL 312350 nan
20 EFOU 25.373 64.926 METAR FMIAWOS 420406831 METAR EFOU 010020Z AUTO 26005KT CAVOK M02/M04 Q1001= 20200101T002000 nan nan 20200101T002103,260823 SAFI31 EFOU 010020 nan
20 EFOU 25.373 64.926 METAR FMIAWOS 420413750 METAR EFOU 010050Z AUTO 25006KT CAVOK M02/M03 Q1001= 20200101T005000 nan nan 20200101T005102,400908 SAFI31 EFOU 010050 nan
20 EFOU 25.373 64.926 METAR AFTN 420393922 METAR EFOU 312350Z AUTO 27005KT CAVOK M02/M04 Q1001= 20191231T235000 nan nan 20191231T235202,571376 SAFI31 EFKL 312350 nan
22 EFRO 25.822 66.562 METAR FMIAWOS 420406842 METAR EFRO 010020Z AUTO 22003KT 200V260 CAVOK M10/M11 Q0997= 20200101T002000 nan nan 20200101T002103,271502 SAFI31 EFRO 010020 nan
22 EFRO 25.822 66.562 METAR FMIAWOS 420413753 METAR EFRO 010050Z AUTO 22005KT CAVOK M09/M11 Q0997= 20200101T005000 nan nan 20200101T005102,412588 SAFI31 EFRO 010050 nan
22 EFRO 25.822 66.562 METAR AFTN 420393923 METAR EFRO 312350Z AUTO 26004KT 220V290 CAVOK M10/M12 Q0997= 20191231T235000 nan nan 20191231T235202,571376 SAFI31 EFKL 312350 nan
