7 EFHK 24.907 60.316 METAR AFTN 420407290 METAR EFHK 010020Z 27008KT CAVOK M01/M03 Q1010 NOSIG= 20200101T002000 nan nan 20200101T002104,177225 SAFI31 EFHK 010020 nan
7 EFHK 24.907 60.316 METAR AFTN 420413738 METAR EFHK 010050Z 26009KT CAVOK M01/M03 Q1010 NOSIG= 20200101T005000 nan nan 20200101T005002,915153 SAFI31 EFHK 010050 nan
5549 EETN 24.833 59.413 METAR GTS 420407544 METAR EETN 010020Z 29014KT 9999 FEW023 03/M02 Q1013 R08/19//95 = 20200101T002000 nan nan 20200101T002203,977397 SAEO31 EETN 010020 nan
5549 EETN 24.833 59.413 METAR GTS 420413830 METAR EETN 010050Z 29014KT 9999 FEW023 03/M02 Q1013 R08/19//95 = 20200101T005000 nan nan 20200101T005201,918711 SAEO31 EETN 010050 nan
5 EFHA 24.805 61.855 METAR FMIAWOS 420406794 METAR EFHA 010020Z AUTO 27008KT CAVOK M03/M04 Q1007= 20200101T002000 nan nan 20200101T002103,224238 SAFI31 EFHA 010020 nan
5 EFHA 24.805 61.855 METAR FMIAWOS 420413742 METAR EFHA 010050Z AUTO 27007KT 240V300 CAVOK M02/M04 Q1006= 20200101T005000 nan nan 20200101T005102,365245 SAFI31 EFHA 010050 nan
10 EFJY 25.675 62.402 METAR FMIAWOS 420406808 METAR EFJY 010020Z AUTO 26007KT CAVOK M03/M05 Q1005= 20200101T002000 nan nan 20200101T002103,238858 SAFI31 EFJY 010020 nan
10 EFJY 25.675 62.402 METAR FMIAWOS 420413745 METAR EFJY 010050Z AUTO 25007KT CAVOK M03/M05 Q1005= 20200101T005000 nan nan 20200101T005102,383167 SAFI31 EFJY 010050 nan
20 EFOU 25.373 64.926 METAR FMIAWOS 420406831 METAR EFOU 010020Z AUTO 26005KT CAVOK M02/M04 Q1001= 20200101T002000 nan nan 20200101T002103,260823 SAFI31 EFOU 010020 nan
20 EFOU 25.373 64.926 METAR FMIAWOS 420413750 METAR EFOU 010050Z AUTO 25006KT CAVOK M02/M03 Q1001= 20200101T005000 nan nan 20200101T005102,400908 SAFI31 EFOU 010050 nan
11 EFKE 24.579 65.780 METAR AFTN 420407297 METAR EFKE 010020Z AUTO 21003KT 170V230 CAVOK M10/M11 Q1000= 20200101T002000 nan nan 20200101T002104,393799 SAFI31 EFKE 010020 nan
11 EFKE 24.579 65.780 METAR AFTN 420413765 METAR EFKE 010050Z AUTO VRB02KT 9999 FZUP NCD M10/M11 Q1000= 20200101T005000 nan nan 20200101T005102,921585 SAFI31 EFKE 010050 nan
22 EFRO 25.822 66.562 METAR FMIAWOS 420406842 METAR EFRO 010020Z AUTO 22003KT 200V260 CAVOK M10/M11 Q0997= 20200101T002000 nan nan 20200101T002103,271502 SAFI31 EFRO 010020 nan
22 EFRO 25.822 66.562 METAR FMIAWOS 420413753 METAR EFRO 010050Z AUTO 22005KT CAVOK M09/M11 Q0997= 20200101T005000 nan nan 20200101T005102,412588 SAFI31 EFRO 010050 nan
31989 RUHB 127.533 50.250 SIGMET GTS 420409303 UHHH SIGMET 1 VALID 010030/010430 UHHH- UHHH KHABAROVSK FIR SEV TURB FCST WI N6000 E14316 - N5351 E14308 - N4840 E14419 - N4411 E13532 - N5208 E13852 - N5411 E13044 - N60 E14316 SFC/FL120 STNR NC= 20200101T002000 20200101T003000 20200101T043000 20200101T002502,909667 WSRA31 RUHB 010020 nan
31992 RUKR 92.543 56.176 SIGMET GTS 420409985 UNKL SIGMET 1 VALID 010100/010400 UNKL- UNKL KRASNOYARSK FIR SEV TURB FCST WI N7555 E11443 - N7337 E10805 - N7323 E09100 - N7630 E10635 - N7555 E11443 SFC/FL010 MOV NE 30KMH NC= 20200101T002500 20200101T010000 20200101T040000 20200101T003003,385640 WSRA31 RUKR 010025 nan
31992 RUKR 92.543 56.176 SIGMET GTS 420409988 UNKL SIGMET 2 VALID 010100/010400 UNKL- UNKL KRASNOYARSK FIR SEV MTW FCST WI N7555 E11443 - N7337 E10805 - N7323 E09100 - N7630 E10635 - N7555 E11443 SFC/FL070 STNR NC= 20200101T002800 20200101T010000 20200101T040000 20200101T003003,445765 WSRA31 RUKR 010028 nan
31994 RUMG 150.721 59.911 SIGMET GTS 420409987 UHMM SIGMET 1 VALID 010100/010500 UHMM- UHMM MAGADAN FIR SEV TURB FCST S OF LINE N6155 E14506 - N6146 E15023 - N6111 E15648 - N5940 E15746 SFC/FL240 STNR NC= 20200101T002700 20200101T010000 20200101T050000 20200101T003003,425733 WSRA31 RUMG 010027 nan
31994 RUMG 150.721 59.911 SIGMET GTS 420409990 UHMM SIGMET 2 VALID 010100/010500 UHMM- UHMM MAGADAN FIR SEV TURB FCST SE OF LINE N7200 W16858 - N7235 E17600 - N6120 W17745 SFC/FL150 STNR NC= 20200101T002800 20200101T010000 20200101T050000 20200101T003003,464435 WSRA31 RUMG 010028 nan
7366 FMEE 55.510 -20.887 TCA GTS 420412260 TC ADVISORY
DTG: 20200101/0022Z
TCAC: REUNION
TC: CALVINIA
ADVISORY NR: 2020/11
OBS PSN: 01/0000Z S2512 E06009
CB: WI 160NM OF TC CENTRE TOP FL485
MOV: SSE 17KT
C: 973HPA
MAX WIND: 65KT
FCST PSN +6 HR: 01/0600Z S2650 E06050
FCST MAX WIND +6 HR: 63KT
FCST PSN +12 HR: 01/1200Z S2836 E06131
FCST MAX WIND +12 HR: 60KT
FCST PSN +18 HR: 01/1800Z S3033 E06213
FCST MAX WIND +18 HR: 58KT
FCST PSN +24 HR: 02/0000Z S3228 E06258
FCST MAX WIND +24 HR: 55KT
RMK: HNY 2020
NXT MSG: 20200101/0600Z= 20200101T002200 nan nan 20200101T004201,901638 FKIO20 FMEE 010022 nan
8203 RJTD 139.767 35.683 VAA GTS 420409758 VA ADVISORY
DTG: 20200101/0004Z
VAAC: TOKYO
VOLCANO: ASOSAN 282110
PSN: N3253 E13106
AREA: JAPAN
SUMMIT ELEV: 1592M
ADVISORY NR: 2020/1
INFO SOURCE: HIMAWARI-8 JMA
AVIATION COLOUR CODE: NIL
ERUPTION DETAILS: ACTIVITY CONT. VA AT 20200101/0000Z FL060 EXTD SE
OBS VA DTG: 31/2350Z
OBS VA CLD: VA NOT IDENTIFIABLE FM SATELLITE DATA WIND FL060 310/17KT
FCST VA CLD +6 HR: NOT AVBL
FCST VA CLD +12 HR: NOT AVBL
FCST VA CLD +18 HR: NOT AVBL
RMK: WE WILL ISSUE FURTHER ADVISORY IF VA IS DETECTED IN SATELLITE
IMAGERY.
NXT ADVISORY: NO FURTHER ADVISORIES= 20200101T000400 nan nan 20200101T002702,873180 FVFE01 RJTD 010004 nan
