METAR GTS nan NIL  20151120T235000 nan nan 20151121T000102,511112 20151121T000042 SATU34 LTAA 202350 nan 1
METAR GTS nan NIL= 20151121T000000 nan nan 20151121T000503,298959 20151121T000452 SASP33 LEMM 210000 nan 1
METAR GTS nan NIL= 20151121T000000 nan nan 20151121T000503,321967 20151121T000452 SASP34 LEMM 210000 nan 1
METAR GTS nan NIL= 20151121T000000 nan nan 20151121T000503,382903 20151121T000452 SACR32 LEMM 210000 nan 1
METAR GTS nan NIL= 20151121T000000 nan nan 20151121T000702,509237 20151121T000611 SASP36 LEMM 210000 nan 1
METAR GTS nan NIL= 20151121T000000 nan nan 20151121T000702,530683 20151121T000611 SASP38 LEMM 210000 nan 1
METAR GTS nan NIL= 20151121T000000 nan nan 20151121T000702,548668 20151121T000611 SASP37 LEMM 210000 nan 1
METAR GTS nan NIL= 20151121T000000 nan nan 20151121T000702,567230 20151121T000612 SAIY33 LIIB 210000 nan 1
METAR GTS DAER METAR DAER 210000Z NIL= 20151121T000000 nan nan 20151121T000903,364964 20151121T000858 SAAL41 DAMM 210000 nan 1
METAR GTS LEAG METAR LEAG 210000Z AUTO VRB02KT CAVOK 17/10 Q1025= 20151121T000000 nan nan 20151121T000503,360828 20151121T000452 SASP39 LEMM 210000 nan 1
METAR GTS LFWC METAR LFWC 210000Z AUTO 35015KT 4000 RA BR BKN008/// BKN013/// BKN021/// 14/13 Q1010= 20151121T000000 nan nan 20151121T000803,226091 20151121T000753 SAFR64 LFPW 210000 nan 1
METAR GTS MKBK METAR MKBK NIL= 20151121T000000 nan nan 20151121T000901,968814 20151121T000814 SACA41 KWBC 210000 nan 1
METAR GTS SBJA METAR SBJA NIL= 20151121T000000 nan nan 20151121T000901,743471 20151121T000808 SABZ42 KWBC 210000 nan 1
METAR GTS TABS TABS NIL= 20151120T235100 nan nan 20151121T000901,968814 20151121T000814 SACA41 KWBC 210000 nan 1
METAR GTS TAOA TAOA NIL= 20151120T235100 nan nan 20151121T000901,968814 20151121T000814 SACA41 KWBC 210000 nan 1
METAR GTS TBBI TBBI NIL= 20151120T235100 nan nan 20151121T000901,968814 20151121T000814 SACA41 KWBC 210000 nan 1
